GSAT0225 (GALILEO 29)   
1 59598U 24079A   26200.37717925 -.00000037  00000+0  00000+0 0  9998
2 59598  55.1387 100.1800 0000435 337.1149 204.2884  1.70473943 13861
GSAT0227 (GALILEO 30)   
1 59600U 24079C   26199.09194253 -.00000031  00000+0  00000+0 0  9995
2 59600  55.1327 100.2145 0002950  69.2435 290.8270  1.70473877 13896
GSAT0232 (GALILEO 32)   
1 61182U 24167A   26201.30674958  .00000058  00000+0  00000+0 0  9992
2 61182  55.1781 220.4043 0006424 233.5497 261.4254  1.70474182 11449
GSAT0226 (GALILEO 31)   
1 61183U 24167B   26200.36509781  .00000053  00000+0  00000+0 0  9994
2 61183  55.1770 220.4373 0003204 238.7510 129.6432  1.70474126 11407
BEIDOU-3 M25            
1 61186U 24168B   26201.32315365 -.00000100  00000+0  00000+0 0  9992
2 61186  54.4413 301.0897 0003435 291.6929 142.2234  1.86230209 12402
BEIDOU-3 M27            
1 61187U 24168C   26200.42214709 -.00000096  00000+0  00000+0 0  9997
2 61187  54.4377 301.1038 0000857  40.8164 284.0569  1.86230211  9854
NAVSTAR 83 (USA 440)    
1 62339U 24242A   26200.72170847 -.00000109  00000+0  00000+0 0  9992
2 62339  54.8338 332.8621 0017996   4.3540 337.1791  2.00572353 11908
QZS-6 (MICHIBIKI-6)     
1 62876U 25023A   26201.64061273 -.00000234  00000+0  00000+0 0  9999
2 62876   0.0139  45.3701 0001970  69.1594 144.9793  1.00274332  5289
COSMOS 2584 [GLONASS-K2]
1 63130U 25042A   26200.04979476 -.00000041  00000+0  00000+0 0  9996
2 63130  65.1027  71.7190 0005554 213.0172 147.0181  2.13103871 10724
NAVSTAR 84 (USA 545)    
1 64202U 25116A   26201.23864223 -.00000090  00000+0  00000+0 0  9998
2 64202  55.2573  29.8008 0008456 339.3392 198.6122  2.00573629  8534
COSMOS 2596 [GLONASS-K1]
1 65590U 25206B   26201.36544029 -.00000085  00000+0  00000+0 0  9996
2 65590  64.6129 313.8299 0011231 307.0990  98.2345  2.13100962  6625
GSAT0233 (GALILEO 33)   
1 67160U 25302A   26199.31262406 -.00000032  00000+0  00000+0 0  9997
2 67160  54.3525 101.2437 0001038 152.4729  26.5070  1.70473961  3658
GSAT0234 (GALILEO 34)   
1 67162U 25302C   26201.33878943 -.00000042  00000+0  00000+0 0  9995
2 67162  54.3566 101.1849 0001861 324.8516 197.7380  1.70474060  3740
NAVSTAR 85 (USA 581)    
1 67588U 26017A   26201.10242183 -.00000054  00000+0  00000+0 0  9990
2 67588  55.1095  87.4339 0021305 260.2926  99.5185  2.00570435432274
NAVSTAR 86 (USA 585)    
1 68791U 26087A   26201.26727831  .00000068  00000+0  00000+0 0  9993
2 68791  54.9613 206.4792 0020525 106.0405 218.5629  2.00573151  1492
